{
    "61224": {
        "satname": "KINEIS-3B",
        "tle": "1 61224U 24172E   24348.80214740  .00003117  00000-0  49426-3 0  9998\n2 61224  98.0212  74.6909 0002917  54.8389 305.3092 14.72884498 12369"
    },
    "61223": {
        "satname": "KINEIS-3A",
        "tle": "1 61223U 24172D   24350.24533776  .00003672  00000-0  58527-3 0  9999\n2 61223  98.0167  76.0811 0004498  64.9343 295.2331 14.72550091 12589"
    },
    "61222": {
        "satname": "KINEIS-3E",
        "tle": "1 61222U 24172C   24349.51447960  .00004043  00000-0  64494-3 0  9998\n2 61222  98.0126  75.3231 0001012  90.7517 269.3807 14.72457354 12476"
    },
    "61221": {
        "satname": "KINEIS-3D",
        "tle": "1 61221U 24172B   24350.48259294  .00005588  00000-0  88721-3 0  9990\n2 61221  98.0155  76.2429 0002731 100.2509 259.9006 14.72506123 12614"
    },
    "61220": {
        "satname": "KINEIS-3C",
        "tle": "1 61220U 24172A   24349.81033006  .00004757  00000-0  76415-3 0  9999\n2 61220  98.0153  75.5626 0002256 107.0089 253.1365 14.72075340 12236"
    },
    "60553": {
        "satname": "BRO-15",
        "tle": "1 60553U 24149CP  24350.47044179  .00001970  00000-0  18856-3 0  9997\n2 60553  97.7343  64.1370 0009419 117.3096 242.9084 14.94308638 18009"
    },
    "60551": {
        "satname": "BRO-14",
        "tle": "1 60551U 24149CM  24349.75852347  .00002427  00000-0  23327-3 0  9995\n2 60551  97.7417  63.4841 0008284 125.7033 234.4959 14.93929346 17894"
    },
    "60243": {
        "satname": "ROBUSTA-3A",
        "tle": "1 60243U 24128J   24350.22561739  .00013713  00000-0  10958-2 0  9991\n2 60243  61.9909 333.5678 0029771   3.7754 356.3554 15.00174500 23726"
    },
    "60084": {
        "satname": "KINEIS-1A",
        "tle": "1 60084U 24114F   24350.36806845  .00002306  00000-0  32428-3 0  9997\n2 60084  98.0208   5.4834 0003930  93.4031 266.7629 14.78319588 26220"
    },
    "60083": {
        "satname": "KINEIS-1E",
        "tle": "1 60083U 24114E   24350.39356143  .00002377  00000-0  33352-3 0  9995\n2 60083  98.0207   5.4481 0002105  87.5295 272.6157 14.78401049 26221"
    },
    "60082": {
        "satname": "KINEIS-1D",
        "tle": "1 60082U 24114D   24350.37307521  .00002021  00000-0  30837-3 0  9999\n2 60082  98.0211   4.8469 0002373 123.1652 236.9784 14.74945801 26184"
    },
    "60081": {
        "satname": "KINEIS-1C",
        "tle": "1 60081U 24114C   24350.47344467  .00002119  00000-0  29858-3 0  9998\n2 60081  98.0210   5.4981 0002092 118.0862 242.0560 14.78327488 26237"
    },
    "60079": {
        "satname": "KINEIS-1B",
        "tle": "1 60079U 24114A   24350.48944201  .00002580  00000-0  35863-3 0  9993\n2 60079  98.0205   5.6330 0004013  80.3599 279.8065 14.78715577 26251"
    },
    "59175": {
        "satname": "EXO-0",
        "tle": "1 59175U 23174DK  24350.16028648  .00012694  00000-0  55361-3 0  9998\n2 59175  97.4403  61.9599 0010707 319.2733  40.7702 15.22252715 61164"
    },
    "59108": {
        "satname": "BRO-12",
        "tle": "1 59108U 24043L   24350.44290617  .00003237  00000-0  30669-3 0  9995\n2 59108  97.7850 112.0655 0009385  31.0660 329.1114 14.94266365 42612"
    },
    "59107": {
        "satname": "BRO-13",
        "tle": "1 59107U 24043K   24350.42147279  .00002908  00000-0  27784-3 0  9995\n2 59107  97.7861 111.9942 0009968  34.8046 325.3824 14.94011131 42600"
    },
    "58331": {
        "satname": "BRO-10",
        "tle": "1 58331U 23174CD  24350.44936760  .00017752  00000-0  60587-3 0  9991\n2 58331  97.4324  64.7133 0007208 288.7146  71.3312 15.30364748 61395"
    },
    "58321": {
        "satname": "PROTOMETHEE",
        "tle": "1 58321U 23174BT  24350.43468502  .00011257  00000-0  49743-3 0  9998\n2 58321  97.4348  62.1897 0008301 309.4516  50.5985 15.21852747 61224"
    },
    "58295": {
        "satname": "SPACEVAN-001",
        "tle": "1 58295U 23174AR  24350.46416448  .00005921  00000-0  25670-3 0  9997\n2 58295  97.4410  62.3373 0008703 341.4448  18.6469 15.22716532 61214"
    },
    "58264": {
        "satname": "BRO-11",
        "tle": "1 58264U 23174J   24350.45604817  .00005614  00000-0  26261-3 0  9997\n2 58264  97.4484  62.3933 0011393 343.5424  16.5439 15.20106924 61196"
    },
    "58020": {
        "satname": "NESS",
        "tle": "1 58020U 23155E   24349.66332432  .00014623  00000-0  88514-3 0  9997\n2 58020  97.6448  59.0803 0008084 314.7019  45.3551 15.10694468 64990"
    },
    "57214": {
        "satname": "SYRACUSE 4B",
        "tle": "1 57214U 23093B   24350.02280189 -.00000045  00000-0  00000+0 0  9999\n2 57214   0.0242   8.9781 0000330 292.6867 144.1374  1.00269716  6112"
    },
    "56185": {
        "satname": "BRO-9",
        "tle": "1 56185U 23054H   24350.45448570  .00025870  00000-0  67887-3 0  9991\n2 56185  97.3425 244.7664 0003608 233.9842 126.1069 15.38621179 93772"
    },
    "55011": {
        "satname": "BRO-8",
        "tle": "1 55011U 23001C   24350.39847568  .00012473  00000-0  52211-3 0  9993\n2 55011  97.4064  45.8387 0007994 282.7202  77.3141 15.23670297108050"
    },
    "54259": {
        "satname": "EUTELSAT 10B",
        "tle": "1 54259U 22157A   24350.02610337  .00000078  00000-0  00000+0 0  9992\n2 54259   0.0557  94.8967 0000352  99.2323 269.4394  1.00269593  7543"
    },
    "52422": {
        "satname": "BRO-6",
        "tle": "1 52422U 22047AE  24350.49880650  .00017829  00000-0  61927-3 0  9999\n2 52422  97.3833  68.3593 0005135 236.7064 123.3685 15.29804485146764"
    },
    "52174": {
        "satname": "BRO-7",
        "tle": "1 52174U 22033T   24350.47026185  .00046472  00000-0  67388-3 0  9994\n2 52174  97.3140  76.2054 0006691 344.0734  16.0309 15.55690752151401"
    },
    "51061": {
        "satname": "BRO-5",
        "tle": "1 51061U 22002CF  24350.47651060  .00014238  00000-0  47500-3 0  9999\n2 51061  97.3728  53.0656 0008275 135.3941 224.7967 15.31142655161888"
    },
    "49810": {
        "satname": "GALILEO 28 (224)",
        "tle": "1 49810U 21116B   24350.40136845 -.00000088  00000-0  00000+0 0  9994\n2 49810  57.2880 356.4819 0003598 249.3307 141.2449  1.70475766 18842"
    },
    "49809": {
        "satname": "GALILEO 27 (223)",
        "tle": "1 49809U 21116A   24347.60654338 -.00000077  00000-0  00000-0 0  9991\n2 49809  57.2875 356.5593 0004250 247.2634 115.5373  1.70475531 18783"
    },
    "49466": {
        "satname": "CERES 3",
        "tle": "1 49466U 21105C   24325.73695020 0.00001800  00000-0  31143-3 0    03\n2 49466  75.0035 309.7517 0003590 156.4315 203.5685 14.68360805    05"
    },
    "49465": {
        "satname": "CERES 2",
        "tle": "1 49465U 21105B   24229.85988264 0.00002500  00000-0  43651-3 0    08\n2 49465  75.0051 121.5773 0000931 237.4067 122.5932 14.67960016    00"
    },
    "49464": {
        "satname": "CERES 1",
        "tle": "1 49464U 21105A   24325.73710952 0.00001900  00000-0  32874-3 0    06\n2 49464  75.0019 309.7474 0002000 179.9593 180.0406 14.68362917    06"
    },
    "49333": {
        "satname": "SYRACUSE 4A",
        "tle": "1 49333U 21095B   24349.88590944  .00000145  00000-0  00000+0 0  9997\n2 49333   0.0172   0.2409 0001514 275.0290 173.2062  1.00269622 12489"
    },
    "49070": {
        "satname": "PNEO4",
        "tle": "1 49070U 21073E   24350.45053855  .00003070  00000-0  39651-3 0  9999\n2 49070  97.8934  62.0864 0001046  98.9547 261.1784 14.81677406180115"
    },
    "49066": {
        "satname": "BRO-4",
        "tle": "1 49066U 21073A   24350.39704351  .00173789  00000-0  17683-2 0  9996\n2 49066  97.4306  70.5212 0009536 310.0381  50.0041 15.64538806184720"
    },
    "48268": {
        "satname": "PNEO3",
        "tle": "1 48268U 21034A   24350.48431738  .00003006  00000-0  38841-3 0  9996\n2 48268  97.8951  62.1233 0000901  96.4950 263.6365 14.81678179196402"
    },
    "47305": {
        "satname": "CSO 2",
        "tle": "1 47305U 20104A   24265.99058467 0.00000000  00000-0  00000-0 0    06\n2 47305  97.3537 204.6870 0004003 139.4120 220.5878 15.26897813    01"
    },
    "44876": {
        "satname": "ANGELS",
        "tle": "1 44876U 19092D   24349.98416350  .00012832  00000-0  41257-3 0  9996\n2 44876  97.4630 179.3834 0009878  44.4714 315.7319 15.32346852276992"
    },
    "44495": {
        "satname": "BRO-1",
        "tle": "1 44495U 19054A   24350.45820115  .00026077  00000-0  82826-3 0  9996\n2 44495  45.0092 155.5235 0004903 208.8706 151.1908 15.32238556294595"
    },
    "43866": {
        "satname": "CSO-1",
        "tle": "1 43866U 18106A   24272.09307131 0.00000000  00000-0  00000-0 0    07\n2 43866  98.6341 209.8588 0003411  33.0091 326.9908 14.26736844    07"
    },
    "43272": {
        "satname": "HYLAS 4",
        "tle": "1 43272U 18033B   24350.08890427 -.00000224  00000-0  00000+0 0  9993\n2 43272   0.0494 276.5796 0001468 357.4441 168.6900  1.00271157 24567"
    },
    "43271": {
        "satname": "SUPERBIRD 8",
        "tle": "1 43271U 18033A   24349.62749679 -.00000082  00000-0  00000-0 0  9995\n2 43271   0.0172  24.9931 0001495 221.6989 224.9744  1.00271019 24552"
    },
    "41748": {
        "satname": "INTELSAT 33E",
        "tle": "1 41748U 16053B   24350.50287564 -.00000178  00000-0  00000+0 0  9996\n2 41748   0.1561 102.9377 0024238 163.4153  82.0947  1.00380299 30713"
    },
    "41747": {
        "satname": "INTELSAT 36",
        "tle": "1 41747U 16053A   24350.39507137 -.00000016  00000-0  00000+0 0  9994\n2 41747   0.0114 357.4845 0001374 339.2662 318.5153  1.00271361 30441"
    },
    "41457": {
        "satname": "MICROSCOPE",
        "tle": "1 41457U 16025B   24350.48594462  .00002258  00000-0  50305-3 0  9994\n2 41457  98.2545 355.7236 0001832  90.7126 269.4283 14.57851788458720"
    },
    "40053": {
        "satname": "SPOT 7",
        "tle": "1 40053U 14034A   24350.44017834  .00001240  00000-0  26784-3 0  9996\n2 40053  98.1378  54.0429 0001439  99.5442 260.5921 14.60024594557056"
    }
}